{"type": "FeatureCollection", "features": [ {"type": "Feature", "properties": {"norad_id": 30272, "name": "FENGYUN 1C DEB", "group": "fengyun-1c-debris", "lat": 4.526129325226986, "lon": 46.94947951384821, "alt_km": 862.9835526998577, "timestamp": "2025-12-05T22:40:48.825670+00:00", "meta": {"OBJECT_NAME": "FENGYUN 1C DEB", "OBJECT_ID": "1999-025YH", "EPOCH": "2025-12-05T03:59:10.946688", "MEAN_MOTION": 14.146597, "ECCENTRICITY": 0.00512487, "INCLINATION": 98.902, "RA_OF_ASC_NODE": 46.8839, "ARG_OF_PERICENTER": 124.9411, "MEAN_ANOMALY": 235.6592, "EPHEMERIS_TYPE": 0, "CLASSIFICATION_TYPE": "U", "NORAD_CAT_ID": 30272, "ELEMENT_SET_NO": 999, "REV_AT_EPOCH": 96749, "BSTAR": 0.0026059437, "MEAN_MOTION_DOT": 5.034e-05, "MEAN_MOTION_DDOT": 0}, "tle": {"line1": "1 30272U 99025YH  25339.16609892  .00005034  00000+0  26059-2 0  9997", "line2": "2 30272  98.9020  46.8839 0051248 124.9411 235.6592 14.14659700967498"}}, "geometry": {"type": "Point", "coordinates": [46.94947951384821, 4.526129325226986]}}, {"type": "Feature", "properties": {"norad_id": 30273, "name": "FENGYUN 1C DEB", "group": "fengyun-1c-debris", "lat": -78.99063238714687, "lon": 47.83727453799051, "alt_km": 848.4081131400253, "timestamp": "2025-12-05T22:40:48.825680+00:00", "meta": {"OBJECT_NAME": "FENGYUN 1C DEB", "OBJECT_ID": "1999-025YJ", "EPOCH": "2025-12-05T07:44:30.647616", "MEAN_MOTION": 14.02642437, "ECCENTRICITY": 0.00605484, "INCLINATION": 98.8411, "RA_OF_ASC_NODE": 354.1029, "ARG_OF_PERICENTER": 270.3445, "MEAN_ANOMALY": 104.9058, "EPHEMERIS_TYPE": 0, "CLASSIFICATION_TYPE": "U", "NORAD_CAT_ID": 30273, "ELEMENT_SET_NO": 999, "REV_AT_EPOCH": 96425, "BSTAR": 0.00093832314, "MEAN_MOTION_DOT": 1.428e-05, "MEAN_MOTION_DDOT": 0}, "tle": {"line1": "1 30273U 99025YJ  25339.32257694  .00001428  00000+0  93832-3 0  9992", "line2": "2 30273  98.8411 354.1029 0060548 270.3445 104.9058 14.02642437964256"}}, "geometry": {"type": "Point", "coordinates": [47.83727453799051, -78.99063238714687]}}, {"type": "Feature", "properties": {"norad_id": 30274, "name": "FENGYUN 1C DEB", "group": "fengyun-1c-debris", "lat": -13.749766946171896, "lon": 110.1968321556622, "alt_km": 727.5251443531097, "timestamp": "2025-12-05T22:40:48.825691+00:00", "meta": {"OBJECT_NAME": "FENGYUN 1C DEB", "OBJECT_ID": "1999-025YK", "EPOCH": "2025-12-05T07:59:09.858336", "MEAN_MOTION": 14.51388713, "ECCENTRICITY": 0.00048116, "INCLINATION": 99.3023, "RA_OF_ASC_NODE": 107.2215, "ARG_OF_PERICENTER": 223.2047, "MEAN_ANOMALY": 165.687, "EPHEMERIS_TYPE": 0, "CLASSIFICATION_TYPE": "U", "NORAD_CAT_ID": 30274, "ELEMENT_SET_NO": 999, "REV_AT_EPOCH": 98103, "BSTAR": 0.0049968553, "MEAN_MOTION_DOT": 0.00019935, "MEAN_MOTION_DDOT": 0}, "tle": {"line1": "1 30274U 99025YK  25339.33275299  .00019935  00000+0  49969-2 0  9998", "line2": "2 30274  99.3023 107.2215 0004811 223.2047 165.6870 14.51388713981031"}}, "geometry": {"type": "Point", "coordinates": [110.1968321556622, -13.749766946171896]}}, {"type": "Feature", "properties": {"norad_id": 30275, "name": "FENGYUN 1C DEB", "group": "fengyun-1c-debris", "lat": 81.1618595112467, "lon": -38.311183880304156, "alt_km": 745.7802998868792, "timestamp": "2025-12-05T22:40:48.825701+00:00", "meta": {"OBJECT_NAME": "FENGYUN 1C DEB", "OBJECT_ID": "1999-025YL", "EPOCH": "2025-12-05T04:17:14.470080", "MEAN_MOTION": 14.4510196, "ECCENTRICITY": 0.00398813, "INCLINATION": 98.6293, "RA_OF_ASC_NODE": 63.3186, "ARG_OF_PERICENTER": 208.5701, "MEAN_ANOMALY": 219.0682, "EPHEMERIS_TYPE": 0, "CLASSIFICATION_TYPE": "U", "NORAD_CAT_ID": 30275, "ELEMENT_SET_NO": 999, "REV_AT_EPOCH": 97975, "BSTAR": 0.0046287284, "MEAN_MOTION_DOT": 0.00016334, "MEAN_MOTION_DDOT": 0}, "tle": {"line1": "1 30275U 99025YL  25339.17863970  .00016334  00000+0  46287-2 0  9990", "line2": "2 30275  98.6293  63.3186 0039881 208.5701 219.0682 14.45101960979751"}}, "geometry": {"type": "Point", "coordinates": [-38.311183880304156, 81.1618595112467]}}, {"type": "Feature", "properties": {"norad_id": 30276, "name": "FENGYUN 1C DEB", "group": "fengyun-1c-debris", "lat": 59.613982157063795, "lon": -113.14279072760634, "alt_km": 777.8921603119124, "timestamp": "2025-12-05T22:40:48.825711+00:00", "meta": {"OBJECT_NAME": "FENGYUN 1C DEB", "OBJECT_ID": "1999-025YM", "EPOCH": "2025-12-05T03:36:50.544864", "MEAN_MOTION": 14.26954574, "ECCENTRICITY": 0.00256001, "INCLINATION": 98.8599, "RA_OF_ASC_NODE": 50.6261, "ARG_OF_PERICENTER": 113.0288, "MEAN_ANOMALY": 247.3595, "EPHEMERIS_TYPE": 0, "CLASSIFICATION_TYPE": "U", "NORAD_CAT_ID": 30276, "ELEMENT_SET_NO": 999, "REV_AT_EPOCH": 97422, "BSTAR": 0.0028336493, "MEAN_MOTION_DOT": 6.873e-05, "MEAN_MOTION_DDOT": 0}, "tle": {"line1": "1 30276U 99025YM  25339.15058501  .00006873  00000+0  28336-2 0  9997", "line2": "2 30276  98.8599  50.6261 0025600 113.0288 247.3595 14.26954574974220"}}, "geometry": {"type": "Point", "coordinates": [-113.14279072760634, 59.613982157063795]}}, {"type": "Feature", "properties": {"norad_id": 30277, "name": "FENGYUN 1C DEB", "group": "fengyun-1c-debris", "lat": 23.733815949557417, "lon": -125.42572648001217, "alt_km": 778.6067646217889, "timestamp": "2025-12-05T22:40:48.825721+00:00", "meta": {"OBJECT_NAME": "FENGYUN 1C DEB", "OBJECT_ID": "1999-025YN", "EPOCH": "2025-12-04T10:52:34.359744", "MEAN_MOTION": 14.13506099, "ECCENTRICITY": 0.0123956, "INCLINATION": 98.9745, "RA_OF_ASC_NODE": 49.0934, "ARG_OF_PERICENTER": 201.02, "MEAN_ANOMALY": 288.5388, "EPHEMERIS_TYPE": 0, "CLASSIFICATION_TYPE": "U", "NORAD_CAT_ID": 30277, "ELEMENT_SET_NO": 999, "REV_AT_EPOCH": 96672, "BSTAR": 0.0033835, "MEAN_MOTION_DOT": 6.814e-05, "MEAN_MOTION_DDOT": 0}, "tle": {"line1": "1 30277U 99025YN  25338.45317546  .00006814  00000+0  33835-2 0  9992", "line2": "2 30277  98.9745  49.0934 0123956 201.0200 288.5388 14.13506099966723"}}, "geometry": {"type": "Point", "coordinates": [-125.42572648001217, 23.733815949557417]}}, {"type": "Feature", "properties": {"norad_id": 30279, "name": "FENGYUN 1C DEB", "group": "fengyun-1c-debris", "lat": 65.58854850044108, "lon": 115.18973597907298, "alt_km": 660.2118209267192, "timestamp": "2025-12-05T22:40:48.825731+00:00", "meta": {"OBJECT_NAME": "FENGYUN 1C DEB", "OBJECT_ID": "1999-025YQ", "EPOCH": "2025-12-05T07:32:43.518048", "MEAN_MOTION": 14.23056234, "ECCENTRICITY": 0.02197946, "INCLINATION": 99.1491, "RA_OF_ASC_NODE": 273.736, "ARG_OF_PERICENTER": 93.8097, "MEAN_ANOMALY": 29.1468, "EPHEMERIS_TYPE": 0, "CLASSIFICATION_TYPE": "U", "NORAD_CAT_ID": 30279, "ELEMENT_SET_NO": 999, "REV_AT_EPOCH": 97505, "BSTAR": 0.0011254422, "MEAN_MOTION_DOT": 3.204e-05, "MEAN_MOTION_DDOT": 0}, "tle": {"line1": "1 30279U 99025YQ  25339.31439257  .00003204  00000+0  11254-2 0  9995", "line2": "2 30279  99.1491 273.7360 0219794  93.8097  29.1468 14.23056234975058"}}, "geometry": {"type": "Point", "coordinates": [115.18973597907298, 65.58854850044108]}}, {"type": "Feature", "properties": {"norad_id": 30280, "name": "FENGYUN 1C DEB", "group": "fengyun-1c-debris", "lat": 52.756619415351835, "lon": 161.35141466881606, "alt_km": 937.8732546166548, "timestamp": "2025-12-05T22:40:48.825742+00:00", "meta": {"OBJECT_NAME": "FENGYUN 1C DEB", "OBJECT_ID": "1999-025YR", "EPOCH": "2025-12-03T22:18:36.855936", "MEAN_MOTION": 13.9832338, "ECCENTRICITY": 0.00809011, "INCLINATION": 98.775, "RA_OF_ASC_NODE": 327.7011, "ARG_OF_PERICENTER": 354.2742, "MEAN_ANOMALY": 71.4236, "EPHEMERIS_TYPE": 0, "CLASSIFICATION_TYPE": "U", "NORAD_CAT_ID": 30280, "ELEMENT_SET_NO": 999, "REV_AT_EPOCH": 96283, "BSTAR": 0.00039054334, "MEAN_MOTION_DOT": 5.31e-06, "MEAN_MOTION_DDOT": 0}, "tle": {"line1": "1 30280U 99025YR  25337.92959324  .00000531  00000+0  39054-3 0  9993", "line2": "2 30280  98.7750 327.7011 0080901 354.2742  71.4236 13.98323380962838"}}, "geometry": {"type": "Point", "coordinates": [161.35141466881606, 52.756619415351835]}}, {"type": "Feature", "properties": {"norad_id": 30281, "name": "FENGYUN 1C DEB", "group": "fengyun-1c-debris", "lat": 49.891470673050364, "lon": -40.60956627998378, "alt_km": 871.2294545718605, "timestamp": "2025-12-05T22:40:48.825752+00:00", "meta": {"OBJECT_NAME": "FENGYUN 1C DEB", "OBJECT_ID": "1999-025YS", "EPOCH": "2025-12-04T22:51:47.117952", "MEAN_MOTION": 14.10464988, "ECCENTRICITY": 0.0027836, "INCLINATION": 98.7563, "RA_OF_ASC_NODE": 328.967, "ARG_OF_PERICENTER": 259.862, "MEAN_ANOMALY": 154.5875, "EPHEMERIS_TYPE": 0, "CLASSIFICATION_TYPE": "U", "NORAD_CAT_ID": 30281, "ELEMENT_SET_NO": 999, "REV_AT_EPOCH": 97111, "BSTAR": 0.00035521, "MEAN_MOTION_DOT": 5.91e-06, "MEAN_MOTION_DDOT": 0}, "tle": {"line1": "1 30281U 99025YS  25338.95262868  .00000591  00000+0  35521-3 0  9999", "line2": "2 30281  98.7563 328.9670 0027836 259.8620 154.5875 14.10464988971116"}}, "geometry": {"type": "Point", "coordinates": [-40.60956627998378, 49.891470673050364]}}, {"type": "Feature", "properties": {"norad_id": 30282, "name": "FENGYUN 1C DEB", "group": "fengyun-1c-debris", "lat": 72.48080109908376, "lon": -168.180679294111, "alt_km": 822.6112443753127, "timestamp": "2025-12-05T22:40:48.825762+00:00", "meta": {"OBJECT_NAME": "FENGYUN 1C DEB", "OBJECT_ID": "1999-025YT", "EPOCH": "2025-12-05T00:23:24.597024", "MEAN_MOTION": 14.12954197, "ECCENTRICITY": 0.02107343, "INCLINATION": 98.5014, "RA_OF_ASC_NODE": 342.6538, "ARG_OF_PERICENTER": 24.2259, "MEAN_ANOMALY": 37.1548, "EPHEMERIS_TYPE": 0, "CLASSIFICATION_TYPE": "U", "NORAD_CAT_ID": 30282, "ELEMENT_SET_NO": 999, "REV_AT_EPOCH": 97242, "BSTAR": 0.00059177767, "MEAN_MOTION_DOT": 1.32e-05, "MEAN_MOTION_DDOT": 0}, "tle": {"line1": "1 30282U 99025YT  25339.01625691  .00001320  00000+0  59178-3 0  9990", "line2": "2 30282  98.5014 342.6538 0210734  24.2259  37.1548 14.12954197972421"}}, "geometry": {"type": "Point", "coordinates": [-168.180679294111, 72.48080109908376]}}]}